satname,norad_id,inclination_deg,eccentricity,mean_motion_rev_per_day,perigee_km,apogee_km,l1,l2
STARLINK-1548,46054,53.1583,0.0001343,15.31713462,469.78006720695976,471.6196647891675,1 46054U 20055AD  26137.77063976  .00001996  00000+0  76032-4 0  9991,2 46054  53.1583 152.8269 0001343  86.4784 273.6371 15.31713462319653
STARLINK-1554,46055,53.1575,0.0001339,15.31705613,469.80620082657606,471.6403256050662,1 46055U 20055AE  26137.75198626  .00001180  00000+0  49777-4 0  9992,2 46055  53.1575 152.8569 0001339  91.5167 268.5987 15.31705613319650
STARLINK-1564,46058,53.1592,0.0001274,15.30196258,474.3531239025133,476.0993608566723,1 46058U 20055AH  26137.32878517  .00001152  00000+0  51020-4 0  9995,2 46058  53.1592 155.5472 0001274  88.4588 271.6559 15.30196258319574
STARLINK-1570,46059,53.1597,0.0001514,15.31696742,469.7127857238638,471.7866286187955,1 46059U 20055AJ  26137.32317691 -.00000340  00000+0  82166-6 0  9993,2 46059  53.1597 154.7365 0001514 105.8639 254.2529 15.31696742319545
STARLINK-1572,46060,53.1596,0.0001267,15.30189685,474.3775447136277,476.1141919324609,1 46060U 20055AK  26137.30978539  .00000770  00000+0  38133-4 0  9996,2 46060  53.1596 155.3821 0001267  85.9528 274.1617 15.30189685319541
STARLINK-1573,46061,53.1589,0.0001265,15.31693224,469.8938087084498,471.62657969858356,1 46061U 20055AL  26137.37444537  .00000106  00000+0  15178-4 0  9997,2 46061  53.1589 154.4658 0001265  90.9060 269.2087 15.31693224319598
STARLINK-1577,46063,53.1599,0.0001203,15.31706448,469.89685655037374,471.5446917308327,1 46063U 20055AN  26137.46765591  .00000885  00000+0  40278-4 0  9998,2 46063  53.1599 154.0281 0001203  83.6556 276.4583 15.31706448319606
STARLINK-1583,46064,53.1594,0.0001597,15.30198234,474.12586121449294,476.3148235496492,1 46064U 20055AP  26137.46986712  .00001241  00000+0  54030-4 0  9997,2 46064  53.1594 154.3872 0001597  90.3258 269.7926 15.30198234319592
STARLINK-1536,46070,53.16,0.0001264,15.3170419,469.861808608709,471.5932015555936,1 46070U 20055AV  26137.74399466  .00000889  00000+0  40397-4 0  9997,2 46070  53.1600 140.6274 0001264  84.0513 276.0632 15.31704190319811
STARLINK-1542,46073,53.1594,0.0001208,15.31675132,469.9867731465156,471.6414797386642,1 46073U 20055AY  26137.91670139  .00047252  00000+0  15260-2 0  9992,2 46073  53.1594 142.7871 0001208  94.6798   3.7961 15.31675132  5794
STARLINK-1549,46074,53.0492,0.0003781,15.27670794,480.18312793180485,485.3713512797949,1 46074U 20055AZ  26137.42139000  .00014257  00000+0  53191-3 0  9991,2 46074  53.0492 142.0132 0003781  39.4908 320.6365 15.27670794319748
STARLINK-1551,46075,53.16,0.0001237,15.30193578,474.38648239787835,476.08200644374756,1 46075U 20055BA  26137.71161272  .00001152  00000+0  51008-4 0  9996,2 46075  53.1600 140.4616 0001237  93.2281 266.8861 15.30193578319809
STARLINK-1552,46076,53.1586,0.000145,15.31712644,469.7092226797313,471.6953860780013,1 46076U 20055BB  26137.72098220  .00006257  00000+0  21316-3 0  9999,2 46076  53.1586 140.2526 0001450  84.5764 275.5403 15.31712644319796
STARLINK-1559,46077,53.0227,0.0003199,15.36125967,455.391361153841,459.7648516789268,1 46077U 20055BC  26137.33814386  .00022670  00000+0  64366-3 0  9995,2 46077  53.0227 112.6814 0003199  30.0186 330.0999 15.36125967320113
STARLINK-1566,46079,53.1612,0.0001479,15.31697925,469.7332308772311,471.75913052208125,1 46079U 20055BE  26137.72561309  .00001264  00000+0  52502-4 0  9990,2 46079  53.1612 140.0838 0001479  94.3219 265.7952 15.31697925319815
STARLINK-1568,46080,53.0599,0.000454,15.52182702,407.27257634747184,413.4365266762434,1 46080U 20055BF  26137.06389416  .00035982  00000+0  58873-3 0  9996,2 46080  53.0599  65.2755 0004540  33.1510 326.9783 15.52182702320799
STARLINK-1578,46082,53.1607,0.0001631,15.31689641,469.65381816522586,471.8879319140642,1 46082U 20055BH  26137.40375341 -.00000301  00000+0  20585-5 0  9997,2 46082  53.1607 142.0993 0001631  89.1749 270.9440 15.31689641319756
STARLINK-1579,46083,53.161,0.0001211,15.31699523,469.9120179618794,471.5708163145109,1 46083U 20055BJ  26137.71630425  .00000918  00000+0  41333-4 0  9995,2 46083  53.1610 140.1805 0001211  80.4791 279.6347 15.31699523319805
STARLINK-1622,46128,53.0171,0.0005349,15.77867252,332.89278965341964,340.07609167063856,1 46128U 20057M   26137.66495711  .00087120  00000+0  50426-3 0  9990,2 46128  53.0171 242.5116 0005349 354.1664   5.9292 15.77867252318202
STARLINK-1623,46129,53.0436,0.0002515,15.70300772,356.34256943748187,359.73086481719747,1 46129U 20057N   26137.76957212  .00065126  00000+0  52507-3 0  9995,2 46129  53.0436 278.7949 0002515 320.1502  39.9329 15.70300772317713
STARLINK-1624,46130,53.0296,0.0012524,16.03805482,255.57267959760793,272.2096317219057,1 46130U 20057P   26137.72557841  .00602441  18189-3  91372-3 0  9998,2 46130  53.0296 245.0164 0012524 321.6213  38.3926 16.03805482319422
STARLINK-1596,46141,53.0368,0.000476,15.55815331,396.5573076700466,403.00988807922295,1 46141U 20057AA  26137.65755095  .00048904  00000+0  69767-3 0  9993,2 46141  53.0368 259.5682 0004760 317.9254  42.1390 15.55815331317971
STARLINK-1597,46142,53.044,0.0001794,15.69887084,358.0113695758837,360.4287332859367,1 46142U 20057AB  26137.23316889  .00068427  00000+0  56080-3 0  9998,2 46142  53.0440 321.1508 0001794  56.6803 303.4386 15.69887084317064
STARLINK-1606,46144,53.0381,0.0004974,15.81430624,323.05929658791956,329.7289641564139,1 46144U 20057AD  26137.91670139  .00113498  00000+0  55612-3 0  9995,2 46144  53.0381 272.8914 0004974 291.0377 126.1301 15.81430624  5987
STARLINK-1608,46146,53.16,9.84e-05,15.33908788,463.4903330108973,464.8368977720065,1 46146U 20057AF  26136.97311230  .00023018  00000+0  70106-3 0  9999,2 46146  53.1600 351.5366 0000984 182.4158 177.6839 15.33908788316640
STARLINK-1667,46155,53.0151,0.0006888,15.8123204,322.3369906933485,331.5739260640121,1 46155U 20057AQ  26137.91670139  .00061172  00000+0  30570-3 0  9994,2 46155  53.0151 241.1239 0006888 352.7880  52.6759 15.81232040  5985
STARLINK-1545,46156,53.0393,0.0003533,15.76500352,337.99149506468075,342.7387886781262,1 46156U 20057AR  26137.77637000  .00102080  00000+0  62627-3 0  9991,2 46156  53.0393 277.2058 0003533 252.8745 107.1888 15.76500352318981
STARLINK-1595,46159,53.0432,7.64e-05,15.68230562,363.4485670720778,364.47876005347007,1 46159U 20057AU  26137.49348717  .00054834  00000+0  48288-3 0  9997,2 46159  53.0432 322.3157 0000764  39.8416 320.2656 15.68230562318335
